start=new Date('2023-05-24T00:00:00.000Z').valueOf();
sats=[{"SITE":"AFWTR","APOAPSIS":"388.282","CENTER_NAME":"EARTH","TLE_LINE2":"2 55645  70.0002 242.5161 0003561 270.2086   5.5116 15.60617821  1306","RA_OF_ASC_NODE":"242.5161","TLE_LINE1":"1 55645U 23021T   23143.91667824 -.00942309  00000-0 -12506-1 0  9993","LAUNCH_DATE":"2023-02-17","INCLINATION":"70.0002","OBJECT_ID":"2023-021T","REV_AT_EPOCH":"130","TIME_SYSTEM":"UTC","ELEMENT_SET_NO":"999","EPOCH":"2023-05-23T22:00:00.999936","MEAN_MOTION_DDOT":"0.0000000000000","GP_ID":"232406703","BSTAR":"-0.01250600000000","MEAN_ANOMALY":"5.5116","ARG_OF_PERICENTER":"270.2086","FILE":"3915766","MEAN_MOTION_DOT":"-0.00942309","MEAN_MOTION":"15.60617821","REF_FRAME":"TEME","DECAY_DATE":null,"MEAN_ELEMENT_THEORY":"SGP4","EPHEMERIS_TYPE":"0","PERIOD":"92.271","NORAD_CAT_ID":"55645","CLASSIFICATION_TYPE":"U","COUNTRY_CODE":"US","RCS_SIZE":"LARGE","OBJECT_TYPE":"PAYLOAD","ECCENTRICITY":"0.00035610","PERIAPSIS":"383.465","OBJECT_NAME":"STARLINK-5102","SEMIMAJOR_AXIS":"6764.008"},{"CLASSIFICATION_TYPE":"U","OBJECT_TYPE":"PAYLOAD","COUNTRY_CODE":"US","RCS_SIZE":"LARGE","EPHEMERIS_TYPE":"0","NORAD_CAT_ID":"55646","PERIOD":"92.278","SEMIMAJOR_AXIS":"6764.330","ECCENTRICITY":"0.00033390","PERIAPSIS":"383.936","OBJECT_NAME":"STARLINK-5104","ARG_OF_PERICENTER":"271.0717","MEAN_ANOMALY":"353.1345","MEAN_MOTION_DOT":"-0.00953215","MEAN_MOTION":"15.60506671","REF_FRAME":"TEME","DECAY_DATE":null,"MEAN_ELEMENT_THEORY":"SGP4","FILE":"3915766","TIME_SYSTEM":"UTC","ELEMENT_SET_NO":"999","EPOCH":"2023-05-23T22:00:00.999936","OBJECT_ID":"2023-021U","REV_AT_EPOCH":"130","INCLINATION":"70.0003","GP_ID":"232407455","BSTAR":"-0.01272100000000","MEAN_MOTION_DDOT":"0.0000000000000","RA_OF_ASC_NODE":"242.5300","APOAPSIS":"388.453","SITE":"AFWTR","CENTER_NAME":"EARTH","TLE_LINE2":"2 55646  70.0003 242.5300 0003339 271.0717 353.1345 15.60506671  1302","LAUNCH_DATE":"2023-02-17","TLE_LINE1":"1 55646U 23021U   23143.91667824 -.00953215  00000-0 -12721-1 0  9991"},{"MEAN_MOTION_DDOT":"0.0000000000000","BSTAR":"-0.01252000000000","GP_ID":"232407704","REV_AT_EPOCH":"130","INCLINATION":"70.0001","OBJECT_ID":"2023-021V","EPOCH":"2023-05-23T22:00:00.999936","ELEMENT_SET_NO":"999","TIME_SYSTEM":"UTC","TLE_LINE1":"1 55647U 23021V   23143.91667824 -.00942802  00000-0 -12520-1 0  9999","LAUNCH_DATE":"2023-02-17","TLE_LINE2":"2 55647  70.0001 242.5179 0003565 269.1679   5.1140 15.60603677  1302","CENTER_NAME":"EARTH","APOAPSIS":"388.326","SITE":"AFWTR","RA_OF_ASC_NODE":"242.5179","OBJECT_NAME":"STARLINK-5510","PERIAPSIS":"383.503","ECCENTRICITY":"0.00035650","SEMIMAJOR_AXIS":"6764.049","PERIOD":"92.272","NORAD_CAT_ID":"55647","EPHEMERIS_TYPE":"0","COUNTRY_CODE":"US","RCS_SIZE":"LARGE","OBJECT_TYPE":"PAYLOAD","CLASSIFICATION_TYPE":"U","FILE":"3915766","MEAN_ELEMENT_THEORY":"SGP4","DECAY_DATE":null,"REF_FRAME":"TEME","MEAN_MOTION_DOT":"-0.00942802","MEAN_MOTION":"15.60603677","MEAN_ANOMALY":"5.1140","ARG_OF_PERICENTER":"269.1679"},{"MEAN_ELEMENT_THEORY":"SGP4","DECAY_DATE":null,"REF_FRAME":"TEME","MEAN_MOTION_DOT":"-0.00953338","MEAN_MOTION":"15.60543033","FILE":"3915766","ARG_OF_PERICENTER":"270.8987","MEAN_ANOMALY":"356.9080","SEMIMAJOR_AXIS":"6764.224","OBJECT_NAME":"STARLINK-5501","PERIAPSIS":"383.832","ECCENTRICITY":"0.00033370","OBJECT_TYPE":"PAYLOAD","COUNTRY_CODE":"US","RCS_SIZE":"LARGE","CLASSIFICATION_TYPE":"U","NORAD_CAT_ID":"55648","PERIOD":"92.276","EPHEMERIS_TYPE":"0","LAUNCH_DATE":"2023-02-17","TLE_LINE1":"1 55648U 23021W   23143.91667824 -.00953338  00000-0 -12705-1 0  9991","RA_OF_ASC_NODE":"242.5256","TLE_LINE2":"2 55648  70.0003 242.5256 0003337 270.8987 356.9080 15.60543033  1308","CENTER_NAME":"EARTH","APOAPSIS":"388.347","SITE":"AFWTR","BSTAR":"-0.01270500000000","GP_ID":"232406954","MEAN_MOTION_DDOT":"0.0000000000000","EPOCH":"2023-05-23T22:00:00.999936","ELEMENT_SET_NO":"999","TIME_SYSTEM":"UTC","OBJECT_ID":"2023-021W","INCLINATION":"70.0003","REV_AT_EPOCH":"130"},{"ARG_OF_PERICENTER":"270.2093","MEAN_ANOMALY":"2.6339","MEAN_MOTION":"15.60588949","MEAN_MOTION_DOT":"-0.00941908","REF_FRAME":"TEME","DECAY_DATE":null,"MEAN_ELEMENT_THEORY":"SGP4","FILE":"3915766","CLASSIFICATION_TYPE":"U","OBJECT_TYPE":"PAYLOAD","COUNTRY_CODE":"US","RCS_SIZE":"LARGE","EPHEMERIS_TYPE":"0","PERIOD":"92.273","NORAD_CAT_ID":"55649","SEMIMAJOR_AXIS":"6764.092","ECCENTRICITY":"0.00035750","PERIAPSIS":"383.539","OBJECT_NAME":"STARLINK-5469","RA_OF_ASC_NODE":"242.5198","SITE":"AFWTR","APOAPSIS":"388.375","CENTER_NAME":"EARTH","TLE_LINE2":"2 55649  70.0001 242.5198 0003575 270.2093   2.6339 15.60588949  1305","LAUNCH_DATE":"2023-02-17","TLE_LINE1":"1 55649U 23021X   23143.91667824 -.00941908  00000-0 -12514-1 0  9990","TIME_SYSTEM":"UTC","ELEMENT_SET_NO":"999","EPOCH":"2023-05-23T22:00:00.999936","INCLINATION":"70.0001","OBJECT_ID":"2023-021X","REV_AT_EPOCH":"130","GP_ID":"232407204","BSTAR":"-0.01251400000000","MEAN_MOTION_DDOT":"0.0000000000000"},{"EPOCH":"2023-05-23T22:00:00.999936","ELEMENT_SET_NO":"999","TIME_SYSTEM":"UTC","REV_AT_EPOCH":"130","INCLINATION":"70.0003","OBJECT_ID":"2023-021Y","BSTAR":"-0.01267200000000","GP_ID":"232407956","MEAN_MOTION_DDOT":"0.0000000000000","RA_OF_ASC_NODE":"242.5231","TLE_LINE2":"2 55650  70.0003 242.5231 0003606 269.9602   0.0042 15.60565854  1306","CENTER_NAME":"EARTH","SITE":"AFWTR","APOAPSIS":"388.463","LAUNCH_DATE":"2023-02-17","TLE_LINE1":"1 55650U 23021Y   23143.91667824 -.00951949  00000-0 -12672-1 0  9993","COUNTRY_CODE":"US","RCS_SIZE":"LARGE","OBJECT_TYPE":"PAYLOAD","CLASSIFICATION_TYPE":"U","PERIOD":"92.274","NORAD_CAT_ID":"55650","EPHEMERIS_TYPE":"0","SEMIMAJOR_AXIS":"6764.158","OBJECT_NAME":"STARLINK-5494","PERIAPSIS":"383.584","ECCENTRICITY":"0.00036060","ARG_OF_PERICENTER":"269.9602","MEAN_ANOMALY":"0.0042","MEAN_ELEMENT_THEORY":"SGP4","DECAY_DATE":null,"REF_FRAME":"TEME","MEAN_MOTION_DOT":"-0.00951949","MEAN_MOTION":"15.60565854","FILE":"3915766"},{"TLE_LINE2":"2 55651  70.0003 242.5274 0003346 272.3449 354.0215 15.60529504  1308","CENTER_NAME":"EARTH","APOAPSIS":"388.392","SITE":"AFWTR","RA_OF_ASC_NODE":"242.5274","TLE_LINE1":"1 55651U 23021Z   23143.91667824 -.00954865  00000-0 -12734-1 0  9993","LAUNCH_DATE":"2023-02-17","OBJECT_ID":"2023-021Z","INCLINATION":"70.0003","REV_AT_EPOCH":"130","EPOCH":"2023-05-23T22:00:00.999936","ELEMENT_SET_NO":"999","TIME_SYSTEM":"UTC","MEAN_MOTION_DDOT":"0.0000000000000","BSTAR":"-0.01273400000000","GP_ID":"232408205","MEAN_ANOMALY":"354.0215","ARG_OF_PERICENTER":"272.3449","FILE":"3915766","MEAN_ELEMENT_THEORY":"SGP4","DECAY_DATE":null,"MEAN_MOTION_DOT":"-0.00954865","REF_FRAME":"TEME","MEAN_MOTION":"15.60529504","NORAD_CAT_ID":"55651","PERIOD":"92.276","EPHEMERIS_TYPE":"0","COUNTRY_CODE":"US","OBJECT_TYPE":"PAYLOAD","RCS_SIZE":"LARGE","CLASSIFICATION_TYPE":"U","OBJECT_NAME":"STARLINK-5506","PERIAPSIS":"383.865","ECCENTRICITY":"0.00033460","SEMIMAJOR_AXIS":"6764.264"},{"BSTAR":"-0.01266200000000","GP_ID":"232406454","MEAN_MOTION_DDOT":"0.0000000000000","EPOCH":"2023-05-23T22:00:00.999936","ELEMENT_SET_NO":"999","TIME_SYSTEM":"UTC","INCLINATION":"70.0003","OBJECT_ID":"2023-021AA","REV_AT_EPOCH":"130","LAUNCH_DATE":"2023-02-17","TLE_LINE1":"1 55652U 23021AA  23143.91667824 -.00951745  00000-0 -12662-1 0  9998","RA_OF_ASC_NODE":"242.5215","TLE_LINE2":"2 55652  70.0003 242.5215 0003598 270.5373   0.8662 15.60580316  1309","CENTER_NAME":"EARTH","SITE":"AFWTR","APOAPSIS":"388.415","SEMIMAJOR_AXIS":"6764.117","OBJECT_NAME":"STARLINK-5487","PERIAPSIS":"383.548","ECCENTRICITY":"0.00035980","RCS_SIZE":"LARGE","COUNTRY_CODE":"US","OBJECT_TYPE":"PAYLOAD","CLASSIFICATION_TYPE":"U","PERIOD":"92.273","NORAD_CAT_ID":"55652","EPHEMERIS_TYPE":"0","DECAY_DATE":null,"MEAN_ELEMENT_THEORY":"SGP4","MEAN_MOTION_DOT":"-0.00951745","REF_FRAME":"TEME","MEAN_MOTION":"15.60580316","FILE":"3915766","ARG_OF_PERICENTER":"270.5373","MEAN_ANOMALY":"0.8662"},{"FILE":"3915766","DECAY_DATE":null,"MEAN_ELEMENT_THEORY":"SGP4","MEAN_MOTION_DOT":"-0.00952472","MEAN_MOTION":"15.60616375","REF_FRAME":"TEME","MEAN_ANOMALY":"5.0654","ARG_OF_PERICENTER":"269.9352","PERIAPSIS":"383.439","OBJECT_NAME":"STARLINK-5067","ECCENTRICITY":"0.00036050","SEMIMAJOR_AXIS":"6764.013","PERIOD":"92.271","NORAD_CAT_ID":"55653","EPHEMERIS_TYPE":"0","CLASSIFICATION_TYPE":"U","RCS_SIZE":"LARGE","COUNTRY_CODE":"US","OBJECT_TYPE":"PAYLOAD","TLE_LINE1":"1 55653U 23021AB  23143.91667824 -.00952472  00000-0 -12655-1 0  9999","LAUNCH_DATE":"2023-02-17","CENTER_NAME":"EARTH","TLE_LINE2":"2 55653  70.0002 242.5170 0003605 269.9352   5.0654 15.60616375  1300","SITE":"AFWTR","APOAPSIS":"388.316","RA_OF_ASC_NODE":"242.5170","MEAN_MOTION_DDOT":"0.0000000000000","GP_ID":"232406704","BSTAR":"-0.01265500000000","OBJECT_ID":"2023-021AB","INCLINATION":"70.0002","REV_AT_EPOCH":"130","ELEMENT_SET_NO":"999","EPOCH":"2023-05-23T22:00:00.999936","TIME_SYSTEM":"UTC"},{"ECCENTRICITY":"0.00033380","PERIAPSIS":"383.956","OBJECT_NAME":"STARLINK-5070","SEMIMAJOR_AXIS":"6764.349","EPHEMERIS_TYPE":"0","PERIOD":"92.278","NORAD_CAT_ID":"55654","CLASSIFICATION_TYPE":"U","OBJECT_TYPE":"PAYLOAD","COUNTRY_CODE":"US","RCS_SIZE":"LARGE","FILE":"3915766","MEAN_MOTION":"15.60500064","MEAN_MOTION_DOT":"-0.00953607","REF_FRAME":"TEME","DECAY_DATE":null,"MEAN_ELEMENT_THEORY":"SGP4","MEAN_ANOMALY":"352.5362","ARG_OF_PERICENTER":"270.9487","MEAN_MOTION_DDOT":"0.0000000000000","GP_ID":"232407456","BSTAR":"-0.01273000000000","REV_AT_EPOCH":"130","OBJECT_ID":"2023-021AC","INCLINATION":"70.0002","TIME_SYSTEM":"UTC","ELEMENT_SET_NO":"999","EPOCH":"2023-05-23T22:00:00.999936","TLE_LINE1":"1 55654U 23021AC  23143.91667824 -.00953607  00000-0 -12730-1 0  9995","LAUNCH_DATE":"2023-02-17","APOAPSIS":"388.472","SITE":"AFWTR","CENTER_NAME":"EARTH","TLE_LINE2":"2 55654  70.0002 242.5307 0003338 270.9487 352.5362 15.60500064  1300","RA_OF_ASC_NODE":"242.5307"}];
